{"type": "FeatureCollection", "features": [ {"type": "Feature", "properties": {"norad_id": 34141, "name": "COSMOS 2251 DEB", "group": "cosmos-2251-debris", "lat": -21.822982463840216, "lon": 14.61225828441882, "alt_km": 753.8405389700738, "timestamp": "2025-12-16T19:34:24.662376+00:00", "meta": {"OBJECT_NAME": "COSMOS 2251 DEB", "OBJECT_ID": "1993-036LN", "EPOCH": "2025-12-15T12:56:30.765408", "MEAN_MOTION": 14.49273967, "ECCENTRICITY": 0.00469589, "INCLINATION": 74.0115, "RA_OF_ASC_NODE": 23.6016, "ARG_OF_PERICENTER": 108.9832, "MEAN_ANOMALY": 52.4368, "EPHEMERIS_TYPE": 0, "CLASSIFICATION_TYPE": "U", "NORAD_CAT_ID": 34141, "ELEMENT_SET_NO": 999, "REV_AT_EPOCH": 87734, "BSTAR": 0.00092513108, "MEAN_MOTION_DOT": 3.552e-05, "MEAN_MOTION_DDOT": 0}, "tle": {"line1": "1 34141U 93036LN  25349.53924497  .00003552  00000+0  92513-3 0  9997", "line2": "2 34141  74.0115  23.6016 0046958 108.9832  52.4368 14.49273967877343"}}, "geometry": {"type": "Point", "coordinates": [14.61225828441882, -21.822982463840216]}}, {"type": "Feature", "properties": {"norad_id": 34270, "name": "COSMOS 2251 DEB", "group": "cosmos-2251-debris", "lat": 11.256757085092886, "lon": 115.50144462407445, "alt_km": 670.2132363353358, "timestamp": "2025-12-16T19:34:24.662386+00:00", "meta": {"OBJECT_NAME": "COSMOS 2251 DEB", "OBJECT_ID": "1993-036LQ", "EPOCH": "2025-12-15T21:30:38.435616", "MEAN_MOTION": 14.65197059, "ECCENTRICITY": 0.0047833, "INCLINATION": 74.0113, "RA_OF_ASC_NODE": 300.5437, "ARG_OF_PERICENTER": 92.3546, "MEAN_ANOMALY": 268.31, "EPHEMERIS_TYPE": 0, "CLASSIFICATION_TYPE": "U", "NORAD_CAT_ID": 34270, "ELEMENT_SET_NO": 999, "REV_AT_EPOCH": 89142, "BSTAR": 0.00056874957, "MEAN_MOTION_DOT": 3.083e-05, "MEAN_MOTION_DDOT": 0}, "tle": {"line1": "1 34270U 93036LQ  25349.89627819  .00003083  00000+0  56875-3 0  9997", "line2": "2 34270  74.0113 300.5437 0047833  92.3546 268.3100 14.65197059891421"}}, "geometry": {"type": "Point", "coordinates": [115.50144462407445, 11.256757085092886]}}, {"type": "Feature", "properties": {"norad_id": 34271, "name": "COSMOS 2251 DEB", "group": "cosmos-2251-debris", "lat": -15.311844956525489, "lon": 15.908754172984029, "alt_km": 654.1312575971824, "timestamp": "2025-12-16T19:34:24.662397+00:00", "meta": {"OBJECT_NAME": "COSMOS 2251 DEB", "OBJECT_ID": "1993-036LR", "EPOCH": "2025-12-15T07:34:34.161888", "MEAN_MOTION": 14.70821945, "ECCENTRICITY": 0.00187263, "INCLINATION": 74.0203, "RA_OF_ASC_NODE": 194.3223, "ARG_OF_PERICENTER": 248.1187, "MEAN_ANOMALY": 289.2535, "EPHEMERIS_TYPE": 0, "CLASSIFICATION_TYPE": "U", "NORAD_CAT_ID": 34271, "ELEMENT_SET_NO": 999, "REV_AT_EPOCH": 88272, "BSTAR": 0.0011155944, "MEAN_MOTION_DOT": 6.81e-05, "MEAN_MOTION_DDOT": 0}, "tle": {"line1": "1 34271U 93036LR  25349.31567317  .00006810  00000+0  11156-2 0  9994", "line2": "2 34271  74.0203 194.3223 0018726 248.1187 289.2535 14.70821945882726"}}, "geometry": {"type": "Point", "coordinates": [15.908754172984029, -15.311844956525489]}}, {"type": "Feature", "properties": {"norad_id": 34273, "name": "COSMOS 2251 DEB", "group": "cosmos-2251-debris", "lat": 68.36596498229427, "lon": 125.83386249864056, "alt_km": 688.4481179411332, "timestamp": "2025-12-16T19:34:24.662407+00:00", "meta": {"OBJECT_NAME": "COSMOS 2251 DEB", "OBJECT_ID": "1993-036LT", "EPOCH": "2025-12-15T09:02:44.972160", "MEAN_MOTION": 14.61254552, "ECCENTRICITY": 0.00139769, "INCLINATION": 74.0361, "RA_OF_ASC_NODE": 82.3851, "ARG_OF_PERICENTER": 208.4396, "MEAN_ANOMALY": 221.9539, "EPHEMERIS_TYPE": 0, "CLASSIFICATION_TYPE": "U", "NORAD_CAT_ID": 34273, "ELEMENT_SET_NO": 999, "REV_AT_EPOCH": 88660, "BSTAR": 0.0006682703, "MEAN_MOTION_DOT": 3.272e-05, "MEAN_MOTION_DDOT": 0}, "tle": {"line1": "1 34273U 93036LT  25349.37690940  .00003272  00000+0  66827-3 0  9996", "line2": "2 34273  74.0361  82.3851 0013976 208.4396 221.9539 14.61254552886601"}}, "geometry": {"type": "Point", "coordinates": [125.83386249864056, 68.36596498229427]}}, {"type": "Feature", "properties": {"norad_id": 34274, "name": "COSMOS 2251 DEB", "group": "cosmos-2251-debris", "lat": -28.653307053762877, "lon": -110.26662541905289, "alt_km": 667.6853195230497, "timestamp": "2025-12-16T19:34:24.662417+00:00", "meta": {"OBJECT_NAME": "COSMOS 2251 DEB", "OBJECT_ID": "1993-036LU", "EPOCH": "2025-12-15T15:26:40.794144", "MEAN_MOTION": 14.64822131, "ECCENTRICITY": 0.00218937, "INCLINATION": 74.0047, "RA_OF_ASC_NODE": 62.9727, "ARG_OF_PERICENTER": 212.8107, "MEAN_ANOMALY": 298.9713, "EPHEMERIS_TYPE": 0, "CLASSIFICATION_TYPE": "U", "NORAD_CAT_ID": 34274, "ELEMENT_SET_NO": 999, "REV_AT_EPOCH": 88718, "BSTAR": 0.00071167426, "MEAN_MOTION_DOT": 3.782e-05, "MEAN_MOTION_DDOT": 0}, "tle": {"line1": "1 34274U 93036LU  25349.64352771  .00003782  00000+0  71167-3 0  9993", "line2": "2 34274  74.0047  62.9727 0021893 212.8107 298.9713 14.64822131887184"}}, "geometry": {"type": "Point", "coordinates": [-110.26662541905289, -28.653307053762877]}}, {"type": "Feature", "properties": {"norad_id": 34276, "name": "COSMOS 2251 DEB", "group": "cosmos-2251-debris", "lat": 34.79584406010536, "lon": 89.05593128222601, "alt_km": 715.2040512387421, "timestamp": "2025-12-16T19:34:24.662427+00:00", "meta": {"OBJECT_NAME": "COSMOS 2251 DEB", "OBJECT_ID": "1993-036LW", "EPOCH": "2025-12-15T07:25:17.763168", "MEAN_MOTION": 14.57248925, "ECCENTRICITY": 0.00224931, "INCLINATION": 74.0237, "RA_OF_ASC_NODE": 80.4353, "ARG_OF_PERICENTER": 226.8989, "MEAN_ANOMALY": 190.4359, "EPHEMERIS_TYPE": 0, "CLASSIFICATION_TYPE": "U", "NORAD_CAT_ID": 34276, "ELEMENT_SET_NO": 999, "REV_AT_EPOCH": 88630, "BSTAR": 0.00057673607, "MEAN_MOTION_DOT": 2.587e-05, "MEAN_MOTION_DDOT": 0}, "tle": {"line1": "1 34276U 93036LW  25349.30923337  .00002587  00000+0  57674-3 0  9999", "line2": "2 34276  74.0237  80.4353 0022493 226.8989 190.4359 14.57248925886307"}}, "geometry": {"type": "Point", "coordinates": [89.05593128222601, 34.79584406010536]}}, {"type": "Feature", "properties": {"norad_id": 34297, "name": "COSMOS 2251 DEB", "group": "cosmos-2251-debris", "lat": 67.08879221191506, "lon": 54.16137710017435, "alt_km": 769.3569824864926, "timestamp": "2025-12-16T19:34:24.662437+00:00", "meta": {"OBJECT_NAME": "COSMOS 2251 DEB", "OBJECT_ID": "1993-036MT", "EPOCH": "2025-12-15T23:24:06.499008", "MEAN_MOTION": 14.36632249, "ECCENTRICITY": 0.00174128, "INCLINATION": 74.0487, "RA_OF_ASC_NODE": 278.2914, "ARG_OF_PERICENTER": 346.2721, "MEAN_ANOMALY": 95.0348, "EPHEMERIS_TYPE": 0, "CLASSIFICATION_TYPE": "U", "NORAD_CAT_ID": 34297, "ELEMENT_SET_NO": 999, "REV_AT_EPOCH": 88111, "BSTAR": 0.00013435117, "MEAN_MOTION_DOT": 3.7e-06, "MEAN_MOTION_DDOT": 0}, "tle": {"line1": "1 34297U 93036MT  25349.97507522  .00000370  00000+0  13435-3 0  9994", "line2": "2 34297  74.0487 278.2914 0017412 346.2721  95.0348 14.36632249881118"}}, "geometry": {"type": "Point", "coordinates": [54.16137710017435, 67.08879221191506]}}, {"type": "Feature", "properties": {"norad_id": 34299, "name": "COSMOS 2251 DEB", "group": "cosmos-2251-debris", "lat": -71.84770287781342, "lon": -153.5558601687693, "alt_km": 343.6689854181659, "timestamp": "2025-12-16T19:34:24.662448+00:00", "meta": {"OBJECT_NAME": "COSMOS 2251 DEB", "OBJECT_ID": "1993-036MV", "EPOCH": "2025-12-15T07:30:54.101952", "MEAN_MOTION": 15.7845491, "ECCENTRICITY": 0.00164887, "INCLINATION": 73.9736, "RA_OF_ASC_NODE": 328.6474, "ARG_OF_PERICENTER": 63.735, "MEAN_ANOMALY": 296.557, "EPHEMERIS_TYPE": 0, "CLASSIFICATION_TYPE": "U", "NORAD_CAT_ID": 34299, "ELEMENT_SET_NO": 999, "REV_AT_EPOCH": 89051, "BSTAR": 0.0050737037, "MEAN_MOTION_DOT": 0.0098946, "MEAN_MOTION_DDOT": 0}, "tle": {"line1": "1 34299U 93036MV  25349.31312618  .00989460  00000+0  50737-2 0  9995", "line2": "2 34299  73.9736 328.6474 0016488  63.7350 296.5570 15.78454910890510"}}, "geometry": {"type": "Point", "coordinates": [-153.5558601687693, -71.84770287781342]}}, {"type": "Feature", "properties": {"norad_id": 34301, "name": "COSMOS 2251 DEB", "group": "cosmos-2251-debris", "lat": 34.87930986749675, "lon": 170.13491426920035, "alt_km": 619.4467924180153, "timestamp": "2025-12-16T19:34:24.662458+00:00", "meta": {"OBJECT_NAME": "COSMOS 2251 DEB", "OBJECT_ID": "1993-036MX", "EPOCH": "2025-12-15T21:20:58.113600", "MEAN_MOTION": 14.84707401, "ECCENTRICITY": 0.00110113, "INCLINATION": 74.0041, "RA_OF_ASC_NODE": 160.4404, "ARG_OF_PERICENTER": 221.9001, "MEAN_ANOMALY": 267.2778, "EPHEMERIS_TYPE": 0, "CLASSIFICATION_TYPE": "U", "NORAD_CAT_ID": 34301, "ELEMENT_SET_NO": 999, "REV_AT_EPOCH": 88447, "BSTAR": 0.0021633716, "MEAN_MOTION_DOT": 0.00018359, "MEAN_MOTION_DDOT": 0}, "tle": {"line1": "1 34301U 93036MX  25349.88956150  .00018359  00000+0  21634-2 0  9990", "line2": "2 34301  74.0041 160.4404 0011011 221.9001 267.2778 14.84707401884473"}}, "geometry": {"type": "Point", "coordinates": [170.13491426920035, 34.87930986749675]}}, {"type": "Feature", "properties": {"norad_id": 34302, "name": "COSMOS 2251 DEB", "group": "cosmos-2251-debris", "lat": -0.5039480491478237, "lon": -63.73461135697951, "alt_km": 811.9519932672601, "timestamp": "2025-12-16T19:34:24.662468+00:00", "meta": {"OBJECT_NAME": "COSMOS 2251 DEB", "OBJECT_ID": "1993-036MY", "EPOCH": "2025-12-15T18:01:46.156224", "MEAN_MOTION": 14.39343134, "ECCENTRICITY": 0.00789503, "INCLINATION": 74.1781, "RA_OF_ASC_NODE": 118.0694, "ARG_OF_PERICENTER": 332.455, "MEAN_ANOMALY": 95.6595, "EPHEMERIS_TYPE": 0, "CLASSIFICATION_TYPE": "U", "NORAD_CAT_ID": 34302, "ELEMENT_SET_NO": 999, "REV_AT_EPOCH": 87764, "BSTAR": 0.00047242898, "MEAN_MOTION_DOT": 1.497e-05, "MEAN_MOTION_DDOT": 0}, "tle": {"line1": "1 34302U 93036MY  25349.75122866  .00001497  00000+0  47243-3 0  9996", "line2": "2 34302  74.1781 118.0694 0078950 332.4550  95.6595 14.39343134877648"}}, "geometry": {"type": "Point", "coordinates": [-63.73461135697951, -0.5039480491478237]}}]}